{"type": "FeatureCollection", "features": [ {"type": "Feature", "properties": {"norad_id": 30557, "name": "FENGYUN 1C DEB", "group": "fengyun-1c-debris", "lat": 75.4506006005376, "lon": -96.85429140940923, "alt_km": 891.0756233130614, "timestamp": "2025-12-06T16:45:42.999233+00:00", "meta": {"OBJECT_NAME": "FENGYUN 1C DEB", "OBJECT_ID": "1999-025AKX", "EPOCH": "2025-12-05T16:26:48.206688", "MEAN_MOTION": 14.10745919, "ECCENTRICITY": 0.00677702, "INCLINATION": 98.9214, "RA_OF_ASC_NODE": 44.8953, "ARG_OF_PERICENTER": 252.352, "MEAN_ANOMALY": 107.0242, "EPHEMERIS_TYPE": 0, "CLASSIFICATION_TYPE": "U", "NORAD_CAT_ID": 30557, "ELEMENT_SET_NO": 999, "REV_AT_EPOCH": 96201, "BSTAR": 0.0027717803, "MEAN_MOTION_DOT": 5.023e-05, "MEAN_MOTION_DDOT": 0}, "tle": {"line1": "1 30557U 99025AKX 25339.68528017  .00005023  00000+0  27718-2 0  9990", "line2": "2 30557  98.9214  44.8953 0067770 252.3520 107.0242 14.10745919962019"}}, "geometry": {"type": "Point", "coordinates": [-96.85429140940923, 75.4506006005376]}}, {"type": "Feature", "properties": {"norad_id": 30558, "name": "FENGYUN 1C DEB", "group": "fengyun-1c-debris", "lat": 10.40924880918391, "lon": -56.1067946626339, "alt_km": 1295.5137418491213, "timestamp": "2025-12-06T16:45:42.999243+00:00", "meta": {"OBJECT_NAME": "FENGYUN 1C DEB", "OBJECT_ID": "1999-025AKY", "EPOCH": "2025-12-06T03:12:53.951328", "MEAN_MOTION": 13.28459716, "ECCENTRICITY": 0.04250239, "INCLINATION": 99.4679, "RA_OF_ASC_NODE": 121.6182, "ARG_OF_PERICENTER": 289.1252, "MEAN_ANOMALY": 66.4323, "EPHEMERIS_TYPE": 0, "CLASSIFICATION_TYPE": "U", "NORAD_CAT_ID": 30558, "ELEMENT_SET_NO": 999, "REV_AT_EPOCH": 90670, "BSTAR": 0.0051179829, "MEAN_MOTION_DOT": 3.788e-05, "MEAN_MOTION_DDOT": 0}, "tle": {"line1": "1 30558U 99025AKY 25340.13395777  .00003788  00000+0  51180-2 0  9994", "line2": "2 30558  99.4679 121.6182 0425023 289.1252  66.4323 13.28459716906705"}}, "geometry": {"type": "Point", "coordinates": [-56.1067946626339, 10.40924880918391]}}, {"type": "Feature", "properties": {"norad_id": 30560, "name": "FENGYUN 1C DEB", "group": "fengyun-1c-debris", "lat": 75.59802182380098, "lon": -61.828655876369574, "alt_km": 900.1851400604683, "timestamp": "2025-12-06T16:45:42.999253+00:00", "meta": {"OBJECT_NAME": "FENGYUN 1C DEB", "OBJECT_ID": "1999-025ALA", "EPOCH": "2025-12-05T23:43:44.525856", "MEAN_MOTION": 14.17014553, "ECCENTRICITY": 0.01146371, "INCLINATION": 98.6634, "RA_OF_ASC_NODE": 333.9017, "ARG_OF_PERICENTER": 231.2369, "MEAN_ANOMALY": 189.5399, "EPHEMERIS_TYPE": 0, "CLASSIFICATION_TYPE": "U", "NORAD_CAT_ID": 30560, "ELEMENT_SET_NO": 999, "REV_AT_EPOCH": 97273, "BSTAR": 0.00045703273, "MEAN_MOTION_DOT": 9.36e-06, "MEAN_MOTION_DDOT": 0}, "tle": {"line1": "1 30560U 99025ALA 25339.98870979  .00000936  00000+0  45703-3 0  9997", "line2": "2 30560  98.6634 333.9017 0114637 231.2369 189.5399 14.17014553972739"}}, "geometry": {"type": "Point", "coordinates": [-61.828655876369574, 75.59802182380098]}}, {"type": "Feature", "properties": {"norad_id": 30561, "name": "FENGYUN 1C DEB", "group": "fengyun-1c-debris", "lat": -55.23752106057647, "lon": -4.2132650514792, "alt_km": 905.5154814747211, "timestamp": "2025-12-06T16:45:42.999264+00:00", "meta": {"OBJECT_NAME": "FENGYUN 1C DEB", "OBJECT_ID": "1999-025ALB", "EPOCH": "2025-12-06T06:53:42.376128", "MEAN_MOTION": 14.11260386, "ECCENTRICITY": 0.00605306, "INCLINATION": 98.7246, "RA_OF_ASC_NODE": 342.6048, "ARG_OF_PERICENTER": 132.055, "MEAN_ANOMALY": 244.177, "EPHEMERIS_TYPE": 0, "CLASSIFICATION_TYPE": "U", "NORAD_CAT_ID": 30561, "ELEMENT_SET_NO": 999, "REV_AT_EPOCH": 96887, "BSTAR": 0.0005591979, "MEAN_MOTION_DOT": 9.85e-06, "MEAN_MOTION_DDOT": 0}, "tle": {"line1": "1 30561U 99025ALB 25340.28729602  .00000985  00000+0  55920-3 0  9995", "line2": "2 30561  98.7246 342.6048 0060530 132.0550 244.1770 14.11260386968875"}}, "geometry": {"type": "Point", "coordinates": [-4.2132650514792, -55.23752106057647]}}, {"type": "Feature", "properties": {"norad_id": 30562, "name": "FENGYUN 1C DEB", "group": "fengyun-1c-debris", "lat": -79.44102732219602, "lon": 104.3229226251337, "alt_km": 780.7021916060812, "timestamp": "2025-12-06T16:45:42.999290+00:00", "meta": {"OBJECT_NAME": "FENGYUN 1C DEB", "OBJECT_ID": "1999-025ALC", "EPOCH": "2025-12-06T03:47:01.749696", "MEAN_MOTION": 14.22984589, "ECCENTRICITY": 0.00586416, "INCLINATION": 98.7639, "RA_OF_ASC_NODE": 47.9353, "ARG_OF_PERICENTER": 284.5238, "MEAN_ANOMALY": 102.8821, "EPHEMERIS_TYPE": 0, "CLASSIFICATION_TYPE": "U", "NORAD_CAT_ID": 30562, "ELEMENT_SET_NO": 999, "REV_AT_EPOCH": 96906, "BSTAR": 0.0025214363, "MEAN_MOTION_DOT": 5.737e-05, "MEAN_MOTION_DDOT": 0}, "tle": {"line1": "1 30562U 99025ALC 25340.15765914  .00005737  00000+0  25214-2 0  9990", "line2": "2 30562  98.7639  47.9353 0058641 284.5238 102.8821 14.22984589969061"}}, "geometry": {"type": "Point", "coordinates": [104.3229226251337, -79.44102732219602]}}, {"type": "Feature", "properties": {"norad_id": 30564, "name": "FENGYUN 1C DEB", "group": "fengyun-1c-debris", "lat": -46.54102086382783, "lon": 163.25510805236564, "alt_km": 881.3764913651012, "timestamp": "2025-12-06T16:45:42.999301+00:00", "meta": {"OBJECT_NAME": "FENGYUN 1C DEB", "OBJECT_ID": "1999-025ALE", "EPOCH": "2025-12-06T07:15:56.722176", "MEAN_MOTION": 14.05730512, "ECCENTRICITY": 0.02029381, "INCLINATION": 98.7965, "RA_OF_ASC_NODE": 352.2753, "ARG_OF_PERICENTER": 136.8821, "MEAN_ANOMALY": 246.7215, "EPHEMERIS_TYPE": 0, "CLASSIFICATION_TYPE": "U", "NORAD_CAT_ID": 30564, "ELEMENT_SET_NO": 999, "REV_AT_EPOCH": 96205, "BSTAR": 0.00092431176, "MEAN_MOTION_DOT": 1.774e-05, "MEAN_MOTION_DDOT": 0}, "tle": {"line1": "1 30564U 99025ALE 25340.30273984  .00001774  00000+0  92431-3 0  9993", "line2": "2 30564  98.7965 352.2753 0202938 136.8821 246.7215 14.05730512962051"}}, "geometry": {"type": "Point", "coordinates": [163.25510805236564, -46.54102086382783]}}, {"type": "Feature", "properties": {"norad_id": 30565, "name": "FENGYUN 1C DEB", "group": "fengyun-1c-debris", "lat": -70.38154721969215, "lon": -124.05838264254528, "alt_km": 857.2321467079282, "timestamp": "2025-12-06T16:45:42.999312+00:00", "meta": {"OBJECT_NAME": "FENGYUN 1C DEB", "OBJECT_ID": "1999-025ALF", "EPOCH": "2025-12-04T14:18:48.038112", "MEAN_MOTION": 14.0985227, "ECCENTRICITY": 0.0142886, "INCLINATION": 98.4532, "RA_OF_ASC_NODE": 209.3081, "ARG_OF_PERICENTER": 19.1804, "MEAN_ANOMALY": 47.3784, "EPHEMERIS_TYPE": 0, "CLASSIFICATION_TYPE": "U", "NORAD_CAT_ID": 30565, "ELEMENT_SET_NO": 999, "REV_AT_EPOCH": 95812, "BSTAR": 0.0038127, "MEAN_MOTION_DOT": 7.34e-05, "MEAN_MOTION_DDOT": 0}, "tle": {"line1": "1 30565U 99025ALF 25338.59638933  .00007340  00000+0  38127-2 0  9997", "line2": "2 30565  98.4532 209.3081 0142886  19.1804  47.3784 14.09852270958123"}}, "geometry": {"type": "Point", "coordinates": [-124.05838264254528, -70.38154721969215]}}, {"type": "Feature", "properties": {"norad_id": 30566, "name": "FENGYUN 1C DEB", "group": "fengyun-1c-debris", "lat": -10.743309167033516, "lon": -152.69086707058094, "alt_km": 809.0123702234423, "timestamp": "2025-12-06T16:45:42.999322+00:00", "meta": {"OBJECT_NAME": "FENGYUN 1C DEB", "OBJECT_ID": "1999-025ALG", "EPOCH": "2025-12-06T02:23:23.150400", "MEAN_MOTION": 14.11637206, "ECCENTRICITY": 0.00682757, "INCLINATION": 99.217, "RA_OF_ASC_NODE": 28.4597, "ARG_OF_PERICENTER": 200.3435, "MEAN_ANOMALY": 188.956, "EPHEMERIS_TYPE": 0, "CLASSIFICATION_TYPE": "U", "NORAD_CAT_ID": 30566, "ELEMENT_SET_NO": 999, "REV_AT_EPOCH": 96289, "BSTAR": 0.0022369742, "MEAN_MOTION_DOT": 4.112e-05, "MEAN_MOTION_DDOT": 0}, "tle": {"line1": "1 30566U 99025ALG 25340.09957350  .00004112  00000+0  22370-2 0  9990", "line2": "2 30566  99.2170  28.4597 0068275 200.3435 188.9560 14.11637206962892"}}, "geometry": {"type": "Point", "coordinates": [-152.69086707058094, -10.743309167033516]}}, {"type": "Feature", "properties": {"norad_id": 30567, "name": "FENGYUN 1C DEB", "group": "fengyun-1c-debris", "lat": -28.337116615261284, "lon": 146.7662116842571, "alt_km": 790.4151069784239, "timestamp": "2025-12-06T16:45:42.999335+00:00", "meta": {"OBJECT_NAME": "FENGYUN 1C DEB", "OBJECT_ID": "1999-025ALH", "EPOCH": "2025-12-05T22:51:42.640704", "MEAN_MOTION": 14.08888529, "ECCENTRICITY": 0.01084944, "INCLINATION": 98.7749, "RA_OF_ASC_NODE": 330.8181, "ARG_OF_PERICENTER": 208.5537, "MEAN_ANOMALY": 179.2136, "EPHEMERIS_TYPE": 0, "CLASSIFICATION_TYPE": "U", "NORAD_CAT_ID": 30567, "ELEMENT_SET_NO": 999, "REV_AT_EPOCH": 96678, "BSTAR": 0.0003753545, "MEAN_MOTION_DOT": 6.42e-06, "MEAN_MOTION_DDOT": 0}, "tle": {"line1": "1 30567U 99025ALH 25339.95257686  .00000642  00000+0  37535-3 0  9993", "line2": "2 30567  98.7749 330.8181 0108494 208.5537 179.2136 14.08888529966785"}}, "geometry": {"type": "Point", "coordinates": [146.7662116842571, -28.337116615261284]}}, {"type": "Feature", "properties": {"norad_id": 30568, "name": "FENGYUN 1C DEB", "group": "fengyun-1c-debris", "lat": 9.964188035606467, "lon": -27.952887905147584, "alt_km": 702.5153177504681, "timestamp": "2025-12-06T16:45:42.999345+00:00", "meta": {"OBJECT_NAME": "FENGYUN 1C DEB", "OBJECT_ID": "1999-025ALJ", "EPOCH": "2025-12-06T05:14:38.215968", "MEAN_MOTION": 14.54862645, "ECCENTRICITY": 0.00167773, "INCLINATION": 98.9423, "RA_OF_ASC_NODE": 149.949, "ARG_OF_PERICENTER": 213.6687, "MEAN_ANOMALY": 324.1247, "EPHEMERIS_TYPE": 0, "CLASSIFICATION_TYPE": "U", "NORAD_CAT_ID": 30568, "ELEMENT_SET_NO": 999, "REV_AT_EPOCH": 97564, "BSTAR": 0.0055783013, "MEAN_MOTION_DOT": 0.00024029, "MEAN_MOTION_DDOT": 0}, "tle": {"line1": "1 30568U 99025ALJ 25340.21849787  .00024029  00000+0  55783-2 0  9993", "line2": "2 30568  98.9423 149.9490 0016777 213.6687 324.1247 14.54862645975645"}}, "geometry": {"type": "Point", "coordinates": [-27.952887905147584, 9.964188035606467]}}]}